CCSDS_OMM_VERS                     =2.0                      
COMMENT                            =GENERATED VIA SPACE-TRACK.ORG API
CREATION_DATE                      =2018-07-11T14:23:53      
ORIGINATOR                         =18 SPCS                  
OBJECT_NAME                        =ARASE (ERG)              
OBJECT_ID                          =2016-080A                
CENTER_NAME                        =EARTH                    
REF_FRAME                          =TEME                     
TIME_SYSTEM                        =UTC                      
MEAN_ELEMENT_THEORY                =SGP4                     
EPOCH                              =2018-07-11T11:28:21.990720
MEAN_MOTION                        =2.53671786               
ECCENTRICITY                       =0.70138620               
INCLINATION                        =31.6464                  
RA_OF_ASC_NODE                     =67.1626                  
ARG_OF_PERICENTER                  =97.7176                  
MEAN_ANOMALY                       =339.9985                 
EPHEMERIS_TYPE                     =0                        
CLASSIFICATION_TYPE                =U                        
NORAD_CAT_ID                       =41896                    
ELEMENT_SET_NO                     =999                      
REV_AT_EPOCH                       =1442                     
BSTAR                              =0.00023833000000         
MEAN_MOTION_DOT                    =-0.00000156              
MEAN_MOTION_DDOT                   =0.0000000000000          
USER_DEFINED_SEMIMAJOR_AXIS        =22710.170                
USER_DEFINED_PERIOD                =567.662                  
USER_DEFINED_APOAPSIS              =32260.635                
USER_DEFINED_PERIAPSIS             =403.435                  
USER_DEFINED_OBJECT_TYPE           =PAYLOAD                  
USER_DEFINED_RCS_SIZE              =LARGE                    
USER_DEFINED_COUNTRY_CODE          =JPN                      
USER_DEFINED_LAUNCH_DATE           =2016-12-20               
USER_DEFINED_SITE                  =KSCUT                    
USER_DEFINED_DECAY_DATE            =                         
USER_DEFINED_FILE                  =2307089                  
USER_DEFINED_GP_ID                 =121716231                

CCSDS_OMM_VERS                     =2.0                      
COMMENT                            =GENERATED VIA SPACE-TRACK.ORG API
CREATION_DATE                      =2018-07-12T21:55:37      
ORIGINATOR                         =18 SPCS                  
OBJECT_NAME                        =ARASE (ERG)              
OBJECT_ID                          =2016-080A                
CENTER_NAME                        =EARTH                    
REF_FRAME                          =TEME                     
TIME_SYSTEM                        =UTC                      
MEAN_ELEMENT_THEORY                =SGP4                     
EPOCH                              =2018-07-11T20:55:52.163328
MEAN_MOTION                        =2.53671888               
ECCENTRICITY                       =0.70139730               
INCLINATION                        =31.6470                  
RA_OF_ASC_NODE                     =67.0078                  
ARG_OF_PERICENTER                  =97.9546                  
MEAN_ANOMALY                       =339.8956                 
EPHEMERIS_TYPE                     =0                        
CLASSIFICATION_TYPE                =U                        
NORAD_CAT_ID                       =41896                    
ELEMENT_SET_NO                     =999                      
REV_AT_EPOCH                       =1441                     
BSTAR                              =0.00024206000000         
MEAN_MOTION_DOT                    =-0.00000184              
MEAN_MOTION_DDOT                   =0.0000000000000          
USER_DEFINED_SEMIMAJOR_AXIS        =22710.164                
USER_DEFINED_PERIOD                =567.662                  
USER_DEFINED_APOAPSIS              =32260.877                
USER_DEFINED_PERIAPSIS             =403.181                  
USER_DEFINED_OBJECT_TYPE           =PAYLOAD                  
USER_DEFINED_RCS_SIZE              =LARGE                    
USER_DEFINED_COUNTRY_CODE          =JPN                      
USER_DEFINED_LAUNCH_DATE           =2016-12-20               
USER_DEFINED_SITE                  =KSCUT                    
USER_DEFINED_DECAY_DATE            =                         
USER_DEFINED_FILE                  =2307688                  
USER_DEFINED_GP_ID                 =121750682                

CCSDS_OMM_VERS                     =2.0                      
COMMENT                            =GENERATED VIA SPACE-TRACK.ORG API
CREATION_DATE                      =2018-07-13T23:03:02      
ORIGINATOR                         =18 SPCS                  
OBJECT_NAME                        =ARASE (ERG)              
OBJECT_ID                          =2016-080A                
CENTER_NAME                        =EARTH                    
REF_FRAME                          =TEME                     
TIME_SYSTEM                        =UTC                      
MEAN_ELEMENT_THEORY                =SGP4                     
EPOCH                              =2018-07-13T01:18:22.765824
MEAN_MOTION                        =2.53672204               
ECCENTRICITY                       =0.70142070               
INCLINATION                        =31.6485                  
RA_OF_ASC_NODE                     =66.5446                  
ARG_OF_PERICENTER                  =98.6646                  
MEAN_ANOMALY                       =339.5884                 
EPHEMERIS_TYPE                     =0                        
CLASSIFICATION_TYPE                =U                        
NORAD_CAT_ID                       =41896                    
ELEMENT_SET_NO                     =999                      
REV_AT_EPOCH                       =1444                     
BSTAR                              =0.00029120000000         
MEAN_MOTION_DOT                    =-0.00000219              
MEAN_MOTION_DDOT                   =0.0000000000000          
USER_DEFINED_SEMIMAJOR_AXIS        =22710.145                
USER_DEFINED_PERIOD                =567.661                  
USER_DEFINED_APOAPSIS              =32261.376                
USER_DEFINED_PERIAPSIS             =402.644                  
USER_DEFINED_OBJECT_TYPE           =PAYLOAD                  
USER_DEFINED_RCS_SIZE              =LARGE                    
USER_DEFINED_COUNTRY_CODE          =JPN                      
USER_DEFINED_LAUNCH_DATE           =2016-12-20               
USER_DEFINED_SITE                  =KSCUT                    
USER_DEFINED_DECAY_DATE            =                         
USER_DEFINED_FILE                  =2308102                  
USER_DEFINED_GP_ID                 =121771880                

CCSDS_OMM_VERS                     =2.0                      
COMMENT                            =GENERATED VIA SPACE-TRACK.ORG API
CREATION_DATE                      =2018-07-14T05:30:12      
ORIGINATOR                         =18 SPCS                  
OBJECT_NAME                        =ARASE (ERG)              
OBJECT_ID                          =2016-080A                
CENTER_NAME                        =EARTH                    
REF_FRAME                          =TEME                     
TIME_SYSTEM                        =UTC                      
MEAN_ELEMENT_THEORY                =SGP4                     
EPOCH                              =2018-07-13T10:45:52.945344
MEAN_MOTION                        =2.53672316               
ECCENTRICITY                       =0.70142760               
INCLINATION                        =31.6490                  
RA_OF_ASC_NODE                     =66.3897                  
ARG_OF_PERICENTER                  =98.9018                  
MEAN_ANOMALY                       =339.4859                 
EPHEMERIS_TYPE                     =0                        
CLASSIFICATION_TYPE                =U                        
NORAD_CAT_ID                       =41896                    
ELEMENT_SET_NO                     =999                      
REV_AT_EPOCH                       =1445                     
BSTAR                              =0.00030832000000         
MEAN_MOTION_DOT                    =-0.00000219              
MEAN_MOTION_DDOT                   =0.0000000000000          
USER_DEFINED_SEMIMAJOR_AXIS        =22710.138                
USER_DEFINED_PERIOD                =567.661                  
USER_DEFINED_APOAPSIS              =32261.522                
USER_DEFINED_PERIAPSIS             =402.485                  
USER_DEFINED_OBJECT_TYPE           =PAYLOAD                  
USER_DEFINED_RCS_SIZE              =LARGE                    
USER_DEFINED_COUNTRY_CODE          =JPN                      
USER_DEFINED_LAUNCH_DATE           =2016-12-20               
USER_DEFINED_SITE                  =KSCUT                    
USER_DEFINED_DECAY_DATE            =                         
USER_DEFINED_FILE                  =2308187                  
USER_DEFINED_GP_ID                 =121779390                             

